IRIDIUM 166             
1 43570U 18061B   25222.19720448  .00000054  00000+0  12044-4 0  9996
2 43570  86.4014 186.6847 0002298  92.9470 267.1989 14.34217974368827
IRIDIUM 158             
1 43571U 18061C   25221.18873226  .00000027  00000+0  26462-5 0  9998
2 43571  86.4012 187.1153 0002130  85.8239 274.3200 14.34217698368640
IRIDIUM 165             
1 43572U 18061D   25222.19085679  .00000239  00000+0  78102-4 0  9990
2 43572  86.4015 186.7374 0002396  88.6060 271.5410 14.34220368368810
IRIDIUM 155             
1 43573U 18061E   25221.45511957  .00000073  00000+0  19170-4 0  9998
2 43573  86.4012 186.9293 0002015  90.0924 270.0503 14.34218279368673
IRIDIUM 154             
1 43574U 18061F   25221.43609324  .00000100  00000+0  28814-4 0  9999
2 43574  86.4014 187.0550 0002293  86.9225 273.2233 14.34217968368725
IRIDIUM 163             
1 43575U 18061G   25222.18451953 -.00000099  00000+0 -42352-4 0  9998
2 43575  86.4015 186.6683 0002066  81.9920 278.1510 14.34217632368803
IRIDIUM 156             
1 43576U 18061H   25221.18238962  .00000004  00000+0 -55383-5 0  9995
2 43576  86.4014 187.0934 0001950  93.9440 266.1979 14.34217485368653
IRIDIUM 164             
1 43577U 18061J   25221.44243688  .00000032  00000+0  43946-5 0  9998
2 43577  86.4013 187.0198 0002471  90.1894 269.9585 14.34217748368731
